RADUGA 1 [-]            
1 08513U 75123A   18246.77144050  .00000000  00000-0  00000-0 0  9994
2 08513   9.6758 306.7782 0005546 205.2134 172.9025  1.00276642166304
RADUGA 2 [-]            
1 09416U 76092A   18246.80894241 -.00000151  00000-0  00000+0 0  9998
2 09416  10.3065 308.6117 0028760 313.9855  91.5163  1.00296607100827
RADUGA 3 [-]            
1 10159U 77071A   18246.80574817  .00000140  00000-0  00000+0 0  9993
2 10159  10.8754 310.8903 0007799 218.9620 139.7250  1.00247535148543
RADUGA 4 [-]            
1 10987U 78073A   18246.82502025 -.00000249  00000-0  00000+0 0  9990
2 10987  11.4328 313.8232 0012602 316.0815  99.8439  1.00343572 91077
RADUGA 5 [-]            
1 11343U 79035A   18246.74322171 -.00000179  00000-0  00000-0 0  9992
2 11343  11.8287 316.1365 0001370 102.3655 275.3293  1.00257260100846
RADUGA 6 [-]            
1 11708U 80016A   18246.67578841 -.00000344  00000-0  00000+0 0  9990
2 11708  12.1132 318.6851 0002687 276.3822  95.8509  1.00300682 93631
RADUGA 7 [-]            
1 12003U 80081A   18247.08897431 -.00000218  00000-0  00000+0 0  9996
2 12003  12.2439 320.3376 0011659 249.4106 137.5021  1.00290473 94919
RADUGA 8 [-]            
1 12351U 81027A   18246.33497211 -.00000026  00000-0  00000+0 0  9999
2 12351  12.5534 321.0903 0083904 189.3302 191.5471  1.00409933 93988
RADUGA 9 [-]            
1 12618U 81069A   18246.60591253 -.00000371  00000-0  00000-0 0  9996
2 12618  12.6902 323.3984 0001560   1.7653 350.0355  1.00271788 18820
RADUGA 10 [-]           
1 12897U 81102A   18246.81800125 -.00000203  00000-0  00000+0 0  9990
2 12897  12.7464 324.1836 0002119 168.7160 229.6877  1.00278695 88894
RADUGA 11 [-]           
1 13669U 82113A   18247.48233104 -.00000157  00000-0  00000+0 0  9990
2 13669  14.3517 335.6595 0039423 221.5075 149.6611  0.97709644 93755
RADUGA 12 [-]           
1 13974U 83028A   18246.77962301 -.00000057  00000-0  00000+0 0  9993
2 13974  13.5375 332.7507 0002859 331.9263  27.9084  1.00291158140864
RADUGA 13 [-]           
1 14307U 83088A   18247.12709840 -.00000150  00000-0  00000+0 0  9991
2 14307  14.5128 337.3235 0018125 354.8852  73.4633  0.98174977 91026
RADUGA 14 [-]           
1 14725U 84016A   18246.94612861 -.00000207  00000-0  00000-0 0  9996
2 14725  13.5889 335.9439 0000917  22.6712  50.6827  1.00261245 89598
RADUGA 15 [-]           
1 15057U 84063A   18246.80537348  .00000086  00000-0  00000-0 0  9992
2 15057  13.6654 336.9169 0000539 123.5295 190.1124  1.00287607112582
RADUGA 16 [-]           
1 15946U 85070A   18246.49807545  .00000069  00000-0  00000+0 0  9992
2 15946  13.9114 341.1784 0002944 285.1900  84.4317  1.00254530 93704
RADUGA 17 [-]           
1 16250U 85107A   18246.78795157 -.00000125  00000-0  00000-0 0  9994
2 16250  13.9722 342.3801 0009750 162.0679 285.0876  1.00191626123191
RADUGA 18 [-]           
1 16497U 86007A   18247.21444799 -.00000114  00000-0  00000+0 0  9996
2 16497  14.6741 344.7523 0070225 128.2807 234.4909  0.98811820117821
RADUGA 19 [-]           
1 17046U 86082A   18246.26087380 -.00000107  00000-0  00000+0 0  9995
2 17046  14.9013 348.3227 0007900 116.4150 262.7932  0.98460055114959
RADUGA 20 [-]           
1 17611U 87028A   18245.85535639 -.00000083  00000-0  00000-0 0  9997
2 17611  16.7554 351.8687 0024484  99.2697 259.6555  0.95961777111010
RADUGA 21 [-]           
1 18631U 87100A   18246.38764625 -.00000185  00000-0  00000-0 0  9992
2 18631  14.8841 349.9373 0001923 312.8401  87.5543  1.00186817112579
RADUGA 22 [-]           
1 19596U 88095A   18246.74836863 -.00000373  00000-0  00000-0 0  9990
2 19596  14.6379 353.6843 0001610  98.6821 269.1445  1.00358653 93145
RADUGA 23 [-]           
1 19928U 89030A   18246.74663563 -.00000380  00000-0  00000-0 0  9992
2 19928  14.6752 355.3704 0017358 130.3511 242.9855  1.00246853106349
RADUGA-1 1 [-]          
1 20083U 89048A   18247.14928284 -.00000225  00000-0  00000+0 0  9991
2 20083  15.2741 358.0745 0016979  71.1339 287.3533  0.98709766103190
RADUGA 24 [-]           
1 20367U 89098A   18246.95090859  .00000099  00000-0  00000+0 0  9995
2 20367  15.1093 357.8767 0003558 278.3746  93.9431  1.00285814104520
RADUGA 25 [-]           
1 20499U 90016A   18246.19458924 -.00000293  00000-0  00000+0 0  9997
2 20499  14.8435 358.3341 0001672 270.6741 100.7889  1.00228369104437
RADUGA 26 [-]           
1 21016U 90112A   18246.81715906 -.00000220  00000-0  00000+0 0  9995
2 21016  14.9567   1.4733 0004746   3.5444 357.2086  1.00316975101738
RADUGA-1 2 [-]          
1 21038U 90116A   18246.87966006 -.00000011  00000-0  00000-0 0  9997
2 21038  14.9903   1.5779 0004921  24.7058 335.5097  1.00322736 18828
RADUGA 27 [-]           
1 21132U 91014A   18246.74723750 -.00000374  00000-0  00000-0 0  9995
2 21132  15.5106   1.6276 0002823 324.8887  38.9971  1.00206078100806
RADUGA 28 [-]           
1 21821U 91087A   18247.00385500  .00000117  00000-0  00000+0 0  9990
2 21821  15.0588   4.8611 0002301  73.0967 299.0774  1.00298853 97843
RADUGA 29 [-]           
1 22557U 93013A   18246.09800925  .00000071  00000-0  00000+0 0  9998
2 22557  14.9904   8.9816 0002054  34.0558 351.8658  1.00234601 93171
RADUGA 30 [-]           
1 22836U 93062A   18246.87480069 -.00000094  00000-0  00000-0 0  9998
2 22836  14.9093  10.8000 0006096 276.6971  83.2670  1.00259997 17485
RADUGA-1 3 [-]          
1 22981U 94008A   18246.88460937 -.00000079  00000-0  00000-0 0  9996
2 22981  14.9100  11.9856 0001798 289.8661  71.8158  1.00215184 89979
RADUGA 31 [-]           
1 23010U 94012A   18246.85233812 -.00000329  00000-0  00000-0 0  9990
2 23010  14.8811  11.9561 0002895 342.8417  34.5799  1.00311857 89849
RADUGA 32 [-]           
1 23448U 94087A   18246.88495831 -.00000103  00000-0  00000-0 0  9991
2 23448  14.6894  14.5293 0007531 225.7796 135.1159  1.00261458104370
RADUGA-1 4 [-]          
1 25642U 99010A   18246.86819435 -.00000367  00000-0  00000-0 0  9990
2 25642  14.4831  26.5921 0005441 243.3396 133.3168  1.00314898 71446
RADUGA-1 5 [-]          
1 26477U 00049A   18247.45903910 -.00000112  00000-0  00000+0 0  9996
2 26477  12.1912  29.4350 0002758 305.1867 247.1427  1.00340825 65987
RADUGA-1 6 [-]          
1 26936U 01045A   18246.89355039 -.00000062  00000-0  00000+0 0  9997
2 26936  11.9523  35.0376 0014758 145.2203 215.5706  0.97743539 60789
RADUGA-1 7 [-]          
1 28194U 04010A   18246.59116968  .00000117  00000-0  00000-0 0  9994
2 28194  10.3107  42.2187 0003249 211.6102 342.4492  1.00351880 52891
RADUGA-1M 1 [-]         
1 32373U 07058A   18246.70004000  .00000084  00000-0  00000-0 0  9992
2 32373   3.9692  71.7222 0002417 219.9554 169.7548  0.99395406 24134
RADUGA-1 8 [-]          
1 34264U 09010A   18246.76171573 -.00000084  00000-0  00000-0 0  9990
2 34264   6.5798  64.5213 0011142 311.4571  56.6774  0.99832139 34790
RADUGA-1M 2 [+]         
1 36358U 10002A   18246.88722644 -.00000198  00000-0  00000-0 0  9999
2 36358   0.0355 248.4827 0001526 337.6743 161.2079  1.00270912 21597
RADUGA-1M 3 [+]         
1 39375U 13062A   18246.97050248 -.00000053  00000-0  00000+0 0  9993
2 39375   0.0226 196.9039 0002336 309.3257 256.2179  1.00273310 17624
